{
  "norad_id": 41785,
  "name": "ALSAT-1B",
  "history": [
    {
      "epoch": "2026-04-11T20:07:57.439200Z",
      "apogee_km": 661.5798728593172,
      "perigee_km": 646.3764398912335,
      "latitude_deg": -3.3364588059609594e-05,
      "longitude_deg": -28.579721429387472,
      "height_km": 655.7542309811329,
      "semi_major_axis_km": 7032.115156375275,
      "eccentricity": 0.001081,
      "inclination_deg": 97.7793,
      "raan_deg": 113.4622,
      "arg_perigee_deg": 80.808,
      "mean_anomaly_deg": 279.435,
      "mean_motion_rev_day": 14.72223687
    },
    {
      "epoch": "2026-04-13T08:01:06.418848Z",
      "apogee_km": 661.566768810244,
      "perigee_km": 646.3744628748245,
      "latitude_deg": 6.790079382133145e-05,
      "longitude_deg": 153.0901704731378,
      "height_km": 655.1979380551122,
      "semi_major_axis_km": 7032.107615842534,
      "eccentricity": 0.00108021,
      "inclination_deg": 97.779,
      "raan_deg": 114.8933,
      "arg_perigee_deg": 76.5764,
      "mean_anomaly_deg": 283.6648,
      "mean_motion_rev_day": 14.72226055
    },
    {
      "epoch": "2026-04-14T19:54:15.413184Z",
      "apogee_km": 661.546059304871,
      "perigee_km": 646.3974905818877,
      "latitude_deg": 8.67032848513318e-05,
      "longitude_deg": -25.240485579210244,
      "height_km": 654.6829386533392,
      "semi_major_axis_km": 7032.108774943379,
      "eccentricity": 0.0010771,
      "inclination_deg": 97.7785,
      "raan_deg": 116.3239,
      "arg_perigee_deg": 72.4797,
      "mean_anomaly_deg": 287.7588,
      "mean_motion_rev_day": 14.72225691
    },
    {
      "epoch": "2026-04-15T20:22:18.811776Z",
      "apogee_km": 661.5463965954104,
      "perigee_km": 646.4006369643703,
      "latitude_deg": -4.9131536087773004e-05,
      "longitude_deg": -32.28397503426554,
      "height_km": 654.3233123114538,
      "semi_major_axis_km": 7032.1105167798905,
      "eccentricity": 0.0010769,
      "inclination_deg": 97.7782,
      "raan_deg": 117.2994,
      "arg_perigee_deg": 69.581,
      "mean_anomaly_deg": 290.6553,
      "mean_motion_rev_day": 14.72225144
    },
    {
      "epoch": "2026-04-16T19:12:29.858112Z",
      "apogee_km": 661.5416136507692,
      "perigee_km": 646.3944594020913,
      "latitude_deg": 3.4819890662067703e-06,
      "longitude_deg": -14.857364461280401,
      "height_km": 654.0016175344302,
      "semi_major_axis_km": 7032.10503652643,
      "eccentricity": 0.001077,
      "inclination_deg": 97.7779,
      "raan_deg": 118.2099,
      "arg_perigee_deg": 67.0043,
      "mean_anomaly_deg": 293.23,
      "mean_motion_rev_day": 14.72226865
    },
    {
      "epoch": "2026-04-17T22:56:17.550816Z",
      "apogee_km": 661.4961863045019,
      "perigee_km": 646.4374984943106,
      "latitude_deg": 1.4369465843151029e-05,
      "longitude_deg": -70.83941118444267,
      "height_km": 653.6506582700235,
      "semi_major_axis_km": 7032.103842399406,
      "eccentricity": 0.00107071,
      "inclination_deg": 97.7776,
      "raan_deg": 119.3154,
      "arg_perigee_deg": 63.9271,
      "mean_anomaly_deg": 296.3038,
      "mean_motion_rev_day": 14.7222724
    },
    {
      "epoch": "2026-04-18T20:08:36.434112Z",
      "apogee_km": 661.4890921921124,
      "perigee_km": 646.4502288878821,
      "latitude_deg": 9.333164423583131e-05,
      "longitude_deg": -28.9430707487166,
      "height_km": 653.3590139448672,
      "semi_major_axis_km": 7032.106660539997,
      "eccentricity": 0.0010693,
      "inclination_deg": 97.7775,
      "raan_deg": 120.1613,
      "arg_perigee_deg": 61.3583,
      "mean_anomaly_deg": 298.87,
      "mean_motion_rev_day": 14.72226355
    },
    {
      "epoch": "2026-04-19T20:36:39.608064Z",
      "apogee_km": 661.4549625471982,
      "perigee_km": 646.4737737924488,
      "latitude_deg": 5.121797854037706e-05,
      "longitude_deg": -35.98553741295837,
      "height_km": 653.046470306084,
      "semi_major_axis_km": 7032.101368169823,
      "eccentricity": 0.0010652,
      "inclination_deg": 97.7775,
      "raan_deg": 121.1369,
      "arg_perigee_deg": 58.5134,
      "mean_anomaly_deg": 301.7114,
      "mean_motion_rev_day": 14.72228017
    },
    {
      "epoch": "2026-04-20T14:33:13.822272Z",
      "apogee_km": 661.4185431000096,
      "perigee_km": 646.4934882416892,
      "latitude_deg": -4.987989256913164e-05,
      "longitude_deg": 54.850729458938275,
      "height_km": 652.8131725921519,
      "semi_major_axis_km": 7032.093015670849,
      "eccentricity": 0.00106121,
      "inclination_deg": 97.7774,
      "raan_deg": 121.8526,
      "arg_perigee_deg": 56.3239,
      "mean_anomaly_deg": 303.8979,
      "mean_motion_rev_day": 14.7223064
    },
    {
      "epoch": "2026-04-21T19:54:53.619264Z",
      "apogee_km": 661.3807959055857,
      "perigee_km": 646.5388523485826,
      "latitude_deg": 7.554216067961015e-06,
      "longitude_deg": -25.599917856696614,
      "height_km": 652.4795777919583,
      "semi_major_axis_km": 7032.096824127084,
      "eccentricity": 0.0010553,
      "inclination_deg": 97.7776,
      "raan_deg": 123.0236,
      "arg_perigee_deg": 52.9001,
      "mean_anomaly_deg": 307.317,
      "mean_motion_rev_day": 14.72229444
    },
    {
      "epoch": "2026-04-22T20:22:56.718048Z",
      "apogee_km": 661.3605003750354,
      "perigee_km": 646.5579378338207,
      "latitude_deg": 6.350735387329806e-05,
      "longitude_deg": -32.64198521369184,
      "height_km": 652.1996037325852,
      "semi_major_axis_km": 7032.096219104428,
      "eccentricity": 0.0010525,
      "inclination_deg": 97.7779,
      "raan_deg": 123.9993,
      "arg_perigee_deg": 50.0086,
      "mean_anomaly_deg": 310.2045,
      "mean_motion_rev_day": 14.72229634
    },
    {
      "epoch": "2026-04-23T14:19:30.902016Z",
      "apogee_km": 661.3372641667593,
      "perigee_km": 646.5729648468259,
      "latitude_deg": 3.474636864248541e-05,
      "longitude_deg": 58.194398268779196,
      "height_km": 652.0089625281205,
      "semi_major_axis_km": 7032.092114506792,
      "eccentricity": 0.00104978,
      "inclination_deg": 97.7781,
      "raan_deg": 124.715,
      "arg_perigee_deg": 47.9564,
      "mean_anomaly_deg": 312.2536,
      "mean_motion_rev_day": 14.72230923
    },
    {
      "epoch": "2026-04-24T19:41:10.478688Z",
      "apogee_km": 661.2825845150137,
      "perigee_km": 646.6220846702554,
      "latitude_deg": -3.783781335098979e-05,
      "longitude_deg": -22.25550928347413,
      "height_km": 651.7103903380179,
      "semi_major_axis_km": 7032.089334592634,
      "eccentricity": 0.0010424,
      "inclination_deg": 97.7781,
      "raan_deg": 125.8858,
      "arg_perigee_deg": 44.3601,
      "mean_anomaly_deg": 315.844,
      "mean_motion_rev_day": 14.72231796
    },
    {
      "epoch": "2026-04-25T18:31:21.263232Z",
      "apogee_km": 661.2211592111698,
      "perigee_km": 646.6858281607219,
      "latitude_deg": -1.5439390123270354e-05,
      "longitude_deg": -4.827802841456468,
      "height_km": 651.5441362071463,
      "semi_major_axis_km": 7032.090493685946,
      "eccentricity": 0.0010335,
      "inclination_deg": 97.7781,
      "raan_deg": 126.7963,
      "arg_perigee_deg": 41.9029,
      "mean_anomaly_deg": 318.2968,
      "mean_motion_rev_day": 14.72231432
    }
  ]
}